{
    "links": {
        "self": "http://www.neowsapp.com/rest/v1/neo/3674177?api_key=iIulBulltgU6a56xZRHN4H3l9WmuAYTsLGpBGhQ2"
    },
    "id": "3674177",
    "neo_reference_id": "3674177",
    "name": "(2014 MR41)",
    "designation": "2014 MR41",
    "nasa_jpl_url": "http://ssd.jpl.nasa.gov/sbdb.cgi?sstr=3674177",
    "absolute_magnitude_h": 22.8,
    "estimated_diameter": {
        "kilometers": {
            "estimated_diameter_min": 0.0732073989,
            "estimated_diameter_max": 0.1636967205
        },
        "meters": {
            "estimated_diameter_min": 73.2073989347,
            "estimated_diameter_max": 163.696720474
        },
        "miles": {
            "estimated_diameter_min": 0.0454889547,
            "estimated_diameter_max": 0.1017163949
        },
        "feet": {
            "estimated_diameter_min": 240.181762721,
            "estimated_diameter_max": 537.0627483999
        }
    },
    "is_potentially_hazardous_asteroid": false,
    "close_approach_data": [
        {
            "close_approach_date": "2014-01-26",
            "close_approach_date_full": "2014-Jan-26 20:32",
            "epoch_date_close_approach": 1390768320000,
            "relative_velocity": {
                "kilometers_per_second": "14.3277407621",
                "kilometers_per_hour": "51579.8667434315",
                "miles_per_hour": "32049.7233106616"
            },
            "miss_distance": {
                "astronomical": "0.3790689528",
                "lunar": "147.4578226392",
                "kilometers": "56707907.922010536",
                "miles": "35236660.0370999568"
            },
            "orbiting_body": "Earth"
        },
        {
            "close_approach_date": "2014-07-04",
            "close_approach_date_full": "2014-Jul-04 07:40",
            "epoch_date_close_approach": 1404459600000,
            "relative_velocity": {
                "kilometers_per_second": "14.7301487288",
                "kilometers_per_hour": "53028.5354236595",
                "miles_per_hour": "32949.86969144"
            },
            "miss_distance": {
                "astronomical": "0.0967721128",
                "lunar": "37.6443518792",
                "kilometers": "14476901.950279736",
                "miles": "8995529.7436469168"
            },
            "orbiting_body": "Earth"
        }
    ],
    "orbital_data": {
        "orbit_id": "7",
        "orbit_determination_date": "2017-04-06 08:39:51",
        "first_observation_date": "2014-06-29",
        "last_observation_date": "2014-07-06",
        "data_arc_in_days": 7,
        "observations_used": 54,
        "orbit_uncertainty": "8",
        "minimum_orbit_intersection": ".0705323",
        "jupiter_tisserand_invariant": "5.024",
        "epoch_osculation": "2456839.5",
        "eccentricity": ".1734970763440403",
        "semi_major_axis": "1.250599218672432",
        "inclination": "26.67737002615671",
        "ascending_node_longitude": "102.4423977815904",
        "orbital_period": "510.8291317369521",
        "perihelion_distance": "1.033623910554624",
        "perihelion_argument": "130.6881848310003",
        "aphelion_distance": "1.46757452679024",
        "perihelion_time": "2456797.164331398959",
        "mean_anomaly": "29.83549635188567",
        "mean_motion": ".7047366284219269",
        "equinox": "J2000",
        "orbit_class": {
            "orbit_class_type": "AMO",
            "orbit_class_description": "Near-Earth asteroid orbits similar to that of 1221 Amor",
            "orbit_class_range": "1.017 AU < q (perihelion) < 1.3 AU"
        }
    },
    "is_sentry_object": false
}